IRIDIUM 171             
1 43929U 19002H   24107.14910660  .00000153  00000+0  47432-4 0  9992
2 43929  86.3970 324.8183 0002012  84.0746 276.0679 14.34217662275439
IRIDIUM 170             
1 43930U 19002J   24106.86560400  .00001584  00000+0  24719-3 0  9996
2 43930  86.6089 324.7675 0002237  91.7932 268.3541 14.72265273282681
IRIDIUM 167             
1 43931U 19002K   24106.51484305  .00000438  00000+0  14941-3 0  9991
2 43931  86.3961 324.8805 0002065  85.3904 274.7527 14.34221087275344
IRIDIUM 181             
1 56726U 23068S   24107.20759424  .00000876  00000+0  25314-3 0  9990
2 56726  86.8691  15.2816 0002178  79.1493 280.9954 14.43572389 48195
IRIDIUM 177             
1 56727U 23068T   24106.89645509  .00002500  00000+0  32567-3 0  9997
2 56727  86.2001 344.9458 0001992  83.3860 276.7587 14.80206803 49166
IRIDIUM 174             
1 56728U 23068U   24107.16146009  .00003039  00000+0  39652-3 0  9990
2 56728  86.2010 344.9191 0002599  92.1423 268.0096 14.80214335 49201
IRIDIUM 178             
1 56729U 23068V   24107.15609170  .00002728  00000+0  35541-3 0  9990
2 56729  86.5827 359.4360 0002798  92.7612 267.3929 14.80244456 49201
IRIDIUM 179             
1 56730U 23068W   24107.42104539  .00003330  00000+0  43456-3 0  9995
2 56730  86.6842   2.6755 0002744  93.5334 266.6201 14.80256806 49248
